*******************************************************************************
Ephemeris / WWW_USER Mon Mar 24 07:02:19 2025 Pasadena, USA      / Horizons    
*******************************************************************************
Target body name: Triton (801)                    {source: nep097_merged}
Center body name: Earth (399)                     {source: nep097_merged}
Center-site name: Mauna Kea
*******************************************************************************
Start time      : A.D. 2018-Oct-27 04:00:00.0000 UT      
Stop  time      : A.D. 2018-Oct-27 16:11:00.0000 UT      
Step-size       : 1 minutes
*******************************************************************************
Target pole/equ : IAU_TRITON                      {East-longitude positive}
Target radii    : 1352.6, 1352.6, 1352.6 km       {Equator_a, b, pole_c}       
Center geodetic : 204.5278, 19.8260847, 4.21024   {E-lon(deg),Lat(deg),Alt(km)}
Center cylindric: 204.5278, 6006.35451, 2151.0229 {E-lon(deg),Dxy(km),Dz(km)}
Center pole/equ : ITRF93                          {East-longitude positive}
Center radii    : 6378.137, 6378.137, 6356.752 km {Equator_a, b, pole_c}       
Target primary  : Neptune
Vis. interferer : MOON (R_eq= 1737.400) km        {source: DE441}
Rel. light bend : Sun                             {source: nep097_merged}
Rel. lght bnd GM: 1.3271E+11 km^3/s^2                                          
Atmos refraction: NO (AIRLESS)
RA format       : HMS
Time format     : CAL 
Calendar mode   : Mixed Julian/Gregorian
RTS-only print  : NO       
EOP file        : eop.250321.p250617                                           
EOP coverage    : DATA-BASED 1962-JAN-20 TO 2025-MAR-21. PREDICTS-> 2025-JUN-16
Units conversion: 1 au= 149597870.700 km, c= 299792.458 km/s, 1 day= 86400.0 s 
Table cut-offs 1: Elevation (-90.0deg=NO ),Airmass (>38.000=NO), Daylight (YES)
Table cut-offs 2: Solar elongation (  0.0,180.0=NO ),Local Hour Angle( 0.0=NO )
Table cut-offs 3: RA/DEC angular rate (     0.0=NO )                           
*******************************************************************************
 Date__(UT)__HR:MN     R.A._________(ICRF)_________DEC
******************************************************
$$SOE
 2018-Oct-27 11:00  m  23 01 18.018044 -07 20 54.65837
 2018-Oct-27 11:01  m  23 01 18.015138 -07 20 54.66896
 2018-Oct-27 11:02  m  23 01 18.012233 -07 20 54.67954
 2018-Oct-27 11:03  m  23 01 18.009328 -07 20 54.69012
 2018-Oct-27 11:04  m  23 01 18.006424 -07 20 54.70068
 2018-Oct-27 11:05  m  23 01 18.003521 -07 20 54.71124
 2018-Oct-27 11:06  m  23 01 18.000618 -07 20 54.72179
 2018-Oct-27 11:07  m  23 01 17.997716 -07 20 54.73233
 2018-Oct-27 11:08  m  23 01 17.994814 -07 20 54.74286
 2018-Oct-27 11:09  m  23 01 17.991914 -07 20 54.75339
 2018-Oct-27 11:10  m  23 01 17.989014 -07 20 54.76390
 2018-Oct-27 11:11  m  23 01 17.986114 -07 20 54.77441
 2018-Oct-27 11:12  m  23 01 17.983216 -07 20 54.78491
 2018-Oct-27 11:13  m  23 01 17.980318 -07 20 54.79539
 2018-Oct-27 11:14  m  23 01 17.977420 -07 20 54.80588
 2018-Oct-27 11:15  m  23 01 17.974524 -07 20 54.81635
 2018-Oct-27 11:16  m  23 01 17.971628 -07 20 54.82681
 2018-Oct-27 11:17  m  23 01 17.968732 -07 20 54.83727
 2018-Oct-27 11:18  m  23 01 17.965838 -07 20 54.84771
 2018-Oct-27 11:19  m  23 01 17.962944 -07 20 54.85815
 2018-Oct-27 11:20  m  23 01 17.960051 -07 20 54.86858
 2018-Oct-27 11:21  m  23 01 17.957158 -07 20 54.87900
 2018-Oct-27 11:22  m  23 01 17.954266 -07 20 54.88941
 2018-Oct-27 11:23  m  23 01 17.951375 -07 20 54.89982
 2018-Oct-27 11:24  m  23 01 17.948485 -07 20 54.91021
 2018-Oct-27 11:25  m  23 01 17.945595 -07 20 54.92060
 2018-Oct-27 11:26  m  23 01 17.942706 -07 20 54.93098
 2018-Oct-27 11:27  m  23 01 17.939818 -07 20 54.94135
 2018-Oct-27 11:28  m  23 01 17.936930 -07 20 54.95171
 2018-Oct-27 11:29  m  23 01 17.934043 -07 20 54.96206
 2018-Oct-27 11:30  m  23 01 17.931157 -07 20 54.97241
 2018-Oct-27 11:31  m  23 01 17.928271 -07 20 54.98274
 2018-Oct-27 11:32  m  23 01 17.925387 -07 20 54.99307
 2018-Oct-27 11:33  m  23 01 17.922502 -07 20 55.00339
 2018-Oct-27 11:34  m  23 01 17.919619 -07 20 55.01370
 2018-Oct-27 11:35  m  23 01 17.916736 -07 20 55.02400
 2018-Oct-27 11:36  m  23 01 17.913854 -07 20 55.03429
 2018-Oct-27 11:37  m  23 01 17.910973 -07 20 55.04458
 2018-Oct-27 11:38  m  23 01 17.908092 -07 20 55.05486
 2018-Oct-27 11:39  m  23 01 17.905212 -07 20 55.06513
 2018-Oct-27 11:40  m  23 01 17.902333 -07 20 55.07538
 2018-Oct-27 11:41  m  23 01 17.899455 -07 20 55.08564
 2018-Oct-27 11:42  m  23 01 17.896577 -07 20 55.09588
 2018-Oct-27 11:43  m  23 01 17.893700 -07 20 55.10611
 2018-Oct-27 11:44  m  23 01 17.890823 -07 20 55.11634
 2018-Oct-27 11:45  m  23 01 17.887948 -07 20 55.12656
 2018-Oct-27 11:46  m  23 01 17.885073 -07 20 55.13677
 2018-Oct-27 11:47  m  23 01 17.882198 -07 20 55.14697
 2018-Oct-27 11:48  m  23 01 17.879325 -07 20 55.15716
 2018-Oct-27 11:49  m  23 01 17.876452 -07 20 55.16735
 2018-Oct-27 11:50  m  23 01 17.873580 -07 20 55.17752
 2018-Oct-27 11:51  m  23 01 17.870709 -07 20 55.18769
 2018-Oct-27 11:52  m  23 01 17.867838 -07 20 55.19785
 2018-Oct-27 11:53  m  23 01 17.864968 -07 20 55.20800
 2018-Oct-27 11:54  m  23 01 17.862099 -07 20 55.21814
 2018-Oct-27 11:55  m  23 01 17.859230 -07 20 55.22828
 2018-Oct-27 11:56  m  23 01 17.856362 -07 20 55.23840
 2018-Oct-27 11:57  m  23 01 17.853495 -07 20 55.24852
 2018-Oct-27 11:58  m  23 01 17.850629 -07 20 55.25863
 2018-Oct-27 11:59  m  23 01 17.847763 -07 20 55.26873
 2018-Oct-27 12:00  m  23 01 17.844898 -07 20 55.27882
 2018-Oct-27 12:01  m  23 01 17.842034 -07 20 55.28891
 2018-Oct-27 12:02  m  23 01 17.839171 -07 20 55.29898
 2018-Oct-27 12:03  m  23 01 17.836308 -07 20 55.30905
 2018-Oct-27 12:04  m  23 01 17.833446 -07 20 55.31911
 2018-Oct-27 12:05  m  23 01 17.830585 -07 20 55.32916
 2018-Oct-27 12:06  m  23 01 17.827724 -07 20 55.33920
 2018-Oct-27 12:07  m  23 01 17.824864 -07 20 55.34923
 2018-Oct-27 12:08  m  23 01 17.822005 -07 20 55.35926
 2018-Oct-27 12:09  m  23 01 17.819147 -07 20 55.36928
 2018-Oct-27 12:10  m  23 01 17.816289 -07 20 55.37929
 2018-Oct-27 12:11  m  23 01 17.813432 -07 20 55.38929
 2018-Oct-27 12:12  m  23 01 17.810576 -07 20 55.39928
 2018-Oct-27 12:13  m  23 01 17.807720 -07 20 55.40927
 2018-Oct-27 12:14  m  23 01 17.804866 -07 20 55.41924
 2018-Oct-27 12:15  m  23 01 17.802012 -07 20 55.42921
 2018-Oct-27 12:16  m  23 01 17.799158 -07 20 55.43917
 2018-Oct-27 12:17  m  23 01 17.796306 -07 20 55.44912
 2018-Oct-27 12:18  m  23 01 17.793454 -07 20 55.45906
 2018-Oct-27 12:19  m  23 01 17.790603 -07 20 55.46900
 2018-Oct-27 12:20  m  23 01 17.787753 -07 20 55.47893
 2018-Oct-27 12:21  m  23 01 17.784903 -07 20 55.48884
 2018-Oct-27 12:22  m  23 01 17.782054 -07 20 55.49876
 2018-Oct-27 12:23  m  23 01 17.779206 -07 20 55.50866
 2018-Oct-27 12:24  m  23 01 17.776359 -07 20 55.51855
 2018-Oct-27 12:25  m  23 01 17.773512 -07 20 55.52844
 2018-Oct-27 12:26  m  23 01 17.770666 -07 20 55.53831
 2018-Oct-27 12:27  m  23 01 17.767821 -07 20 55.54818
 2018-Oct-27 12:28  m  23 01 17.764976 -07 20 55.55804
 2018-Oct-27 12:29  m  23 01 17.762133 -07 20 55.56790
 2018-Oct-27 12:30  m  23 01 17.759290 -07 20 55.57774
 2018-Oct-27 12:31  m  23 01 17.756447 -07 20 55.58758
 2018-Oct-27 12:32  m  23 01 17.753606 -07 20 55.59741
 2018-Oct-27 12:33  m  23 01 17.750765 -07 20 55.60723
 2018-Oct-27 12:34  m  23 01 17.747925 -07 20 55.61704
 2018-Oct-27 12:35  m  23 01 17.745086 -07 20 55.62684
 2018-Oct-27 12:36  m  23 01 17.742247 -07 20 55.63664
 2018-Oct-27 12:37  m  23 01 17.739410 -07 20 55.64643
 2018-Oct-27 12:38  m  23 01 17.736573 -07 20 55.65621
 2018-Oct-27 12:39  m  23 01 17.733736 -07 20 55.66598
 2018-Oct-27 12:40  m  23 01 17.730901 -07 20 55.67574
 2018-Oct-27 12:41  m  23 01 17.728066 -07 20 55.68550
 2018-Oct-27 12:42  m  23 01 17.725232 -07 20 55.69524
 2018-Oct-27 12:43  m  23 01 17.722398 -07 20 55.70498
 2018-Oct-27 12:44  m  23 01 17.719566 -07 20 55.71471
 2018-Oct-27 12:45  m  23 01 17.716734 -07 20 55.72443
 2018-Oct-27 12:46  m  23 01 17.713903 -07 20 55.73415
 2018-Oct-27 12:47  m  23 01 17.711073 -07 20 55.74386
 2018-Oct-27 12:48  m  23 01 17.708243 -07 20 55.75355
 2018-Oct-27 12:49  m  23 01 17.705414 -07 20 55.76324
 2018-Oct-27 12:50  m  23 01 17.702586 -07 20 55.77293
 2018-Oct-27 12:51  m  23 01 17.699759 -07 20 55.78260
 2018-Oct-27 12:52  m  23 01 17.696932 -07 20 55.79227
 2018-Oct-27 12:53  m  23 01 17.694106 -07 20 55.80192
 2018-Oct-27 12:54  m  23 01 17.691281 -07 20 55.81157
 2018-Oct-27 12:55  m  23 01 17.688457 -07 20 55.82122
 2018-Oct-27 12:56  m  23 01 17.685633 -07 20 55.83085
 2018-Oct-27 12:57  m  23 01 17.682810 -07 20 55.84048
 2018-Oct-27 12:58  m  23 01 17.679988 -07 20 55.85009
 2018-Oct-27 12:59  m  23 01 17.677167 -07 20 55.85970
 2018-Oct-27 13:00  m  23 01 17.674346 -07 20 55.86930
 2018-Oct-27 13:01  m  23 01 17.671526 -07 20 55.87890
 2018-Oct-27 13:02  s  23 01 17.668707 -07 20 55.88848
 2018-Oct-27 13:03  m  23 01 17.665889 -07 20 55.89806
 2018-Oct-27 13:04  m  23 01 17.663071 -07 20 55.90763
 2018-Oct-27 13:05  m  23 01 17.660255 -07 20 55.91719
 2018-Oct-27 13:06  m  23 01 17.657439 -07 20 55.92675
 2018-Oct-27 13:07  m  23 01 17.654623 -07 20 55.93629
 2018-Oct-27 13:08  m  23 01 17.651809 -07 20 55.94583
 2018-Oct-27 13:09  m  23 01 17.648995 -07 20 55.95536
 2018-Oct-27 13:10  m  23 01 17.646182 -07 20 55.96488
 2018-Oct-27 13:11  m  23 01 17.643369 -07 20 55.97439
 2018-Oct-27 13:12  m  23 01 17.640558 -07 20 55.98390
 2018-Oct-27 13:13  m  23 01 17.637747 -07 20 55.99340
 2018-Oct-27 13:14  m  23 01 17.634937 -07 20 56.00289
 2018-Oct-27 13:15  m  23 01 17.632128 -07 20 56.01237
 2018-Oct-27 13:16  m  23 01 17.629319 -07 20 56.02184
 2018-Oct-27 13:17  m  23 01 17.626511 -07 20 56.03131
 2018-Oct-27 13:18  m  23 01 17.623704 -07 20 56.04077
 2018-Oct-27 13:19  m  23 01 17.620898 -07 20 56.05022
